#aV2011  5 30  0  0   .00000000      96 DD+AD WGS84 FIT  NGA
## 1638  86400.00000000   900.00000000 55711  .0000000000000
+   31     2  3  4  5  6  7  8  9 10 11 12 13 14 15 16 17 18
+         19 20 21 22 23 24 25 26 27 28 29 30 31 32  0  0  0
+          0  0  0  0  0  0  0  0  0  0  0  0  0  0  0  0  0
+          0  0  0  0  0  0  0  0  0  0  0  0  0  0  0  0  0
+          0  0  0  0  0  0  0  0  0  0  0  0  0  0  0  0  0
++         0  0  0  0  0  0  0  0  0  0  0  0  0  0  0  0  0
++         0  0  0  0  0  0  0  0  0  0  0  0  0  0  0  0  0
++         0  0  0  0  0  0  0  0  0  0  0  0  0  0  0  0  0
++         0  0  0  0  0  0  0  0  0  0  0  0  0  0  0  0  0
++         0  0  0  0  0  0  0  0  0  0  0  0  0  0  0  0  0
%c cc cc ccc ccc cccc cccc cccc cccc ccccc ccccc ccccc ccccc
%c cc cc ccc ccc cccc cccc cccc cccc ccccc ccccc ccccc ccccc
%f  0.0000000  0.000000000  0.00000000000  0.000000000000000
%f  0.0000000  0.000000000  0.00000000000  0.000000000000000
%i    0    0    0    0      0      0      0      0         0
%i    0    0    0    0      0      0      0      0         0
/*      NGA, ST. LOUIS,MO.                                  
/*   EPHEMERIS COMPUTED FROM  3 DAYS OF DATA                
/* CCCCCCCCCCCCCCCCCCCCCCCCCCCCCCCCCCCCCCCCCCCCCCCCCCCCCCCCC
/* CCCCCCCCCCCCCCCCCCCCCCCCCCCCCCCCCCCCCCCCCCCCCCCCCCCCCCCCC
*  2011  5 30  2 30   .00000000                                                 
P  2 -13661.407768 -16396.885470 -16057.763976    339.042663                    
V  2   -232.529708 -20455.526729  20529.082990       .019905                    
P  3  23999.288951  11020.905034  -4555.535179    721.692441                    
V  3  -6031.295248   1716.109126 -30115.019097       .051215                    
P  4  -6642.522634 -24899.021948  -5834.086339    129.610045                    
V  4   2975.319294  -7555.023561  30269.431367       .107048                    
P  5 -17357.664148  -4657.430611 -19605.909660   -167.144596                    
V  5  19496.962203 -15455.173114 -13497.196837      -.057047                    
P  6  21444.318356  14093.531478  -7143.500917    320.920273                    
V  6  -9799.768201   -366.408786 -29255.721843      -.882117                    
P  7   6514.988536 -22456.162793 -12389.548210     12.620223                    
V  7   3464.465129  15552.889649 -26572.380782       .012472                    
P  8   1552.335362 -26056.565955  -2797.097599      8.027924                    
V  8   2174.101851   3605.737579 -32637.290682       .000401                    
P  9 -13875.141442   4944.249826  21548.870904     83.114534                    
V  9  -3565.595692 -28416.673053   4121.039047       .024538                    
P 10  -2668.201638 -16306.438567 -20938.152732     -2.131500                    
V 10  22233.789250 -13924.720880   8463.518253      -.012130                    
P 11  16523.484632  -2897.189200  20294.435383   -155.105191                    
V 11   8777.290215  25347.804317  -3124.888476      -.033313                    
P 12 -23337.989761  10628.900887   6570.161269     -1.083977                    
V 12   5528.511560  -6688.243293  30722.322397       .026310                    
P 13  11478.607480 -10059.308812 -21889.905904    267.752582                    
V 13  23722.384401  13630.763993   6155.286282      -.016391                    
P 14   7567.927270  17852.610381  18373.615908    152.969219                    
V 14 -20752.967817  -9743.957406  18033.158347       .022526                    
P 15 -24326.247834  -2281.933731  10618.627731   -124.841987                    
V 15 -11278.179664  -7773.192704 -27356.700659       .024421                    
P 16  16611.913067   5304.711368 -20104.487368   -175.537757                    
V 16 -20783.845079  14689.598877 -12984.564166      -.025900                    
P 17  -7843.208070 -17998.839645  18131.963443    184.136199                    
V 17  20943.532662   8759.205700  17672.711962      -.001743                    
P 18 -12589.216021  19799.006256  12395.316543    139.568680                    
V 18 -14541.417589   6128.090218 -25582.092063       .019483                    
P 19  24433.022831   7140.246452   8192.234115   -145.861925                    
V 19   7808.465223   7150.886917 -29161.458040      -.040343                    
P 20  22288.426706 -13922.016902   3478.162004     49.575997                    
V 20  -1402.470097   5744.020834  30761.634995       .002323                    
P 21  -5282.690011  23615.359144  -9793.570888   -147.673399                    
V 21  -5019.193639 -12909.330812 -27884.859308      -.026011                    
P 22  -1152.611096  18252.151262  19397.760298    148.099275                    
V 22 -21068.978293  12424.508556 -13169.217707      -.004685                    
P 23  21299.767493  -2191.472820 -15937.015087    302.919720                    
V 23  17479.003796  10040.916463  21634.559339      -.027213                    
P 24  14560.898500  -8000.860880  20720.524246    394.205130                    
V 24   2102.099605  26227.948096   8957.303133       .032759                    
P 25 -18455.496378  18264.456617  -5543.067486      1.604703                    
V 25  -7220.559684   2011.197909  30806.698240       .014310                    
P 26 -23276.860522 -13242.181961   -490.907515    -45.048573                    
V 26    698.320237  -1489.506066 -32055.818357      -.112253                    
P 27 -15332.829303  -1857.568871  22296.886874    269.945532                    
V 27  -3604.748353 -26408.564207  -4501.147604       .036522                    
P 28   5325.902896 -18551.451030  18649.680076     41.197140                    
V 28  19720.278408 -11281.792267 -17588.848933       .025411                    
P 29 -13846.947263   9161.021577 -20643.178475    211.309678                    
V 29 -23167.118881 -12692.046469   9914.340236       .028623                    
P 30   9151.178001  12396.073888 -22048.201287      4.982399                    
V 30 -21355.399586  16539.818259    470.758162       .045039                    
P 31   7382.706240  24059.401957  -7944.195957     87.743622                    
V 31  -1397.772837  10553.546931  30121.256045       .056433                    
P 32  23664.918538  -5157.504072  10680.789982   -263.499128                    
V 32 -10022.265048   9205.311014  27775.438432      -.072018                    
EOF
